SL-14 R/B               
1 21423U 91042B   26038.64095639  .00000486  00000+0  58574-4 0  9999
2 21423  82.4899 248.3668 0016636 344.9284  15.1432 14.81800824848627
ERS-1                   
1 21574U 91050A   26038.66836318  .00000441  00000+0  15579-3 0  9992
2 21574  98.7896  56.1480 0030945 292.1032  67.6870 14.39424525811410
ARIANE 40 R/B           
1 21610U 91050F   26038.72134409  .00000401  00000+0  13269-3 0  9992
2 21610  98.2076  92.0732 0003743 147.8943 212.2476 14.42871230814672
INTERCOSMOS 25          
1 21819U 91086A   26038.85270379  .00001280  00000+0  24836-3 0  9991
2 21819  82.6086 328.0381 1486725 181.2100 178.5207 12.11916783493076
SL-8 R/B                
1 21876U 92008B   26038.83736493  .00000053  00000+0  38780-4 0  9992
2 21876  82.9265 289.9861 0033786 216.4988 215.7721 13.75969616705310
SL-8 R/B                
1 21938U 92020B   26038.87923843  .00000143  00000+0  13231-3 0  9999
2 21938  82.9328 175.8881 0029352  23.4948  87.8377 13.75545015697037
USA 81                  
1 21949U 92023A   26038.82944107  .00000285  00000+0  98176-4 0  9994
2 21949  85.0120 148.6586 0002573 104.3115 255.8363 14.32356904 90517
COSMOS 2219             
1 22219U 92076A   26038.52787815 -.00000128  00000+0 -42200-4 0  9996
2 22219  71.0585  81.1245 0020384 248.6098 111.2849 14.14076689714115
SL-16 R/B               
1 22220U 92076B   26038.83763578  .00000120  00000+0  83629-4 0  9992
2 22220  70.9979 251.2574 0011553 149.5481 296.0467 14.16855535717602
COSMOS 2221             
1 22236U 92080A   26038.80867536  .00002872  00000+0  25301-3 0  9998
2 22236  82.5057 307.6981 0012962 297.2556  62.7345 14.96081385776321
SL-16 R/B               
1 22285U 92093B   26038.49264105 -.00000138  00000+0 -46064-4 0  9999
2 22285  71.0201  67.6598 0005114 325.2803  34.7985 14.15441111708887
COSMOS 2228             
1 22286U 92094A   26038.77772480  .00002739  00000+0  23470-3 0  9994
2 22286  82.5156 265.9538 0019128  45.7973 314.4817 14.97053663771583
